{
  "type": "FeatureCollection",
  "features": [
    {
      "type": "Feature",
      "properties": {
        "norad_id": 31307,
        "name": "GALAXY 17 (G-17)",
        "group": "intelsat",
        "lat": -1.044828152873267,
        "lon": 57.10159134721455,
        "alt_km": 35810.206348452964,
        "timestamp": "2025-12-14T03:55:52.460737+00:00",
        "meta_object_name": "GALAXY 17 (G-17)",
        "meta_object_id": "2007-016B",
        "meta_epoch": "2025-12-13T04:29:08.293056",
        "meta_mean_motion": 1.00272443,
        "meta_eccentricity": 0.00057852,
        "meta_inclination": 2.5014,
        "meta_ra_of_asc_node": 82.2803,
        "meta_arg_of_pericenter": 164.913,
        "meta_mean_anomaly": 177.2332,
        "meta_ephemeris_type": 0,
        "meta_classification_type": "U",
        "meta_norad_cat_id": 31307,
        "meta_element_set_no": 999,
        "meta_rev_at_epoch": 6793,
        "meta_bstar": 0,
        "meta_mean_motion_dot": -1.93e-06,
        "meta_mean_motion_ddot": 0,
        "tle_line1": "1 31307U 07016B   25347.18690154 -.00000193  00000+0  00000+0 0  9995",
        "tle_line2": "2 31307   2.5014  82.2803 0005785 164.9130 177.2332  1.00272443 67933"
      },
      "geometry": {
        "type": "Point",
        "coordinates": [
          57.10159134721455,
          -1.044828152873267
        ]
      }
    },
    {
      "type": "Feature",
      "properties": {
        "norad_id": 31862,
        "name": "DIRECTV 10",
        "group": "intelsat",
        "lat": -0.0042237145047866135,
        "lon": 39.25765959142939,
        "alt_km": 35787.52184816082,
        "timestamp": "2025-12-14T03:55:52.460748+00:00",
        "meta_object_name": "DIRECTV 10",
        "meta_object_id": "2007-032A",
        "meta_epoch": "2025-12-12T23:15:53.301024",
        "meta_mean_motion": 1.0027112,
        "meta_eccentricity": 2.941e-05,
        "meta_inclination": 0.0079,
        "meta_ra_of_asc_node": 209.5146,
        "meta_arg_of_pericenter": 8.2783,
        "meta_mean_anomaly": 110.3026,
        "meta_ephemeris_type": 0,
        "meta_classification_type": "U",
        "meta_norad_cat_id": 31862,
        "meta_element_set_no": 999,
        "meta_rev_at_epoch": 4372,
        "meta_bstar": 0,
        "meta_mean_motion_dot": -9e-07,
        "meta_mean_motion_ddot": 0,
        "tle_line1": "1 31862U 07032A   25346.96936691 -.00000090  00000+0  00000+0 0  9999",
        "tle_line2": "2 31862   0.0079 209.5146 0000294   8.2783 110.3026  1.00271120 43721"
      },
      "geometry": {
        "type": "Point",
        "coordinates": [
          39.25765959142939,
          -0.0042237145047866135
        ]
      }
    },
    {
      "type": "Feature",
      "properties": {
        "norad_id": 32253,
        "name": "INTELSAT 11 (IS-11)",
        "group": "intelsat",
        "lat": -3.0237053511050114,
        "lon": 1.5627585640287525,
        "alt_km": 36148.26362842444,
        "timestamp": "2025-12-14T03:55:52.460760+00:00",
        "meta_object_name": "INTELSAT 11 (IS-11)",
        "meta_object_id": "2007-044B",
        "meta_epoch": "2025-12-13T04:13:38.758656",
        "meta_mean_motion": 0.99048956,
        "meta_eccentricity": 0.00088413,
        "meta_inclination": 3.0815,
        "meta_ra_of_asc_node": 80.972,
        "meta_arg_of_pericenter": 166.082,
        "meta_mean_anomaly": 122.2227,
        "meta_ephemeris_type": 0,
        "meta_classification_type": "U",
        "meta_norad_cat_id": 32253,
        "meta_element_set_no": 999,
        "meta_rev_at_epoch": 6660,
        "meta_bstar": 0,
        "meta_mean_motion_dot": 7.7e-07,
        "meta_mean_motion_ddot": 0,
        "tle_line1": "1 32253U 07044B   25347.17614304  .00000077  00000+0  00000+0 0  9999",
        "tle_line2": "2 32253   3.0815  80.9720 0008841 166.0820 122.2227  0.99048956 66600"
      },
      "geometry": {
        "type": "Point",
        "coordinates": [
          1.5627585640287525,
          -3.0237053511050114
        ]
      }
    },
    {
      "type": "Feature",
      "properties": {
        "norad_id": 32388,
        "name": "HORIZONS-2",
        "group": "intelsat",
        "lat": -0.5176625596347403,
        "lon": 68.2705166228708,
        "alt_km": 35805.46741161254,
        "timestamp": "2025-12-14T03:55:52.460772+00:00",
        "meta_object_name": "HORIZONS-2",
        "meta_object_id": "2007-063B",
        "meta_epoch": "2025-12-13T04:32:15.494208",
        "meta_mean_motion": 1.00269759,
        "meta_eccentricity": 0.00048699,
        "meta_inclination": 2.1228,
        "meta_ra_of_asc_node": 82.9566,
        "meta_arg_of_pericenter": 190.5254,
        "meta_mean_anomaly": 162.905,
        "meta_ephemeris_type": 0,
        "meta_classification_type": "U",
        "meta_norad_cat_id": 32388,
        "meta_element_set_no": 999,
        "meta_rev_at_epoch": 6594,
        "meta_bstar": 0,
        "meta_mean_motion_dot": -2.4e-06,
        "meta_mean_motion_ddot": 0,
        "tle_line1": "1 32388U 07063B   25347.18906822 -.00000240  00000+0  00000+0 0  9992",
        "tle_line2": "2 32388   2.1228  82.9566 0004869 190.5254 162.9050  1.00269759 65946"
      },
      "geometry": {
        "type": "Point",
        "coordinates": [
          68.2705166228708,
          -0.5176625596347403
        ]
      }
    },
    {
      "type": "Feature",
      "properties": {
        "norad_id": 32729,
        "name": "DIRECTV 11",
        "group": "intelsat",
        "lat": 0.009661992754646504,
        "lon": 42.85168393851892,
        "alt_km": 35786.406431426796,
        "timestamp": "2025-12-14T03:55:52.460784+00:00",
        "meta_object_name": "DIRECTV 11",
        "meta_object_id": "2008-013A",
        "meta_epoch": "2025-12-12T21:34:07.285152",
        "meta_mean_motion": 1.00271941,
        "meta_eccentricity": 2.766e-05,
        "meta_inclination": 0.0293,
        "meta_ra_of_asc_node": 167.0626,
        "meta_arg_of_pericenter": 342.976,
        "meta_mean_anomaly": 156.139,
        "meta_ephemeris_type": 0,
        "meta_classification_type": "U",
        "meta_norad_cat_id": 32729,
        "meta_element_set_no": 999,
        "meta_rev_at_epoch": 4372,
        "meta_bstar": 0,
        "meta_mean_motion_dot": -1.13e-06,
        "meta_mean_motion_ddot": 0,
        "tle_line1": "1 32729U 08013A   25346.89869543 -.00000113  00000+0  00000+0 0  9991",
        "tle_line2": "2 32729   0.0293 167.0626 0000276 342.9760 156.1390  1.00271941 43729"
      },
      "geometry": {
        "type": "Point",
        "coordinates": [
          42.85168393851892,
          0.009661992754646504
        ]
      }
    },
    {
      "type": "Feature",
      "properties": {
        "norad_id": 32951,
        "name": "GALAXY 18 (G-18)",
        "group": "intelsat",
        "lat": 0.003341372267740008,
        "lon": 19.068181925907314,
        "alt_km": 35790.28458084941,
        "timestamp": "2025-12-14T03:55:52.460795+00:00",
        "meta_object_name": "GALAXY 18 (G-18)",
        "meta_object_id": "2008-024A",
        "meta_epoch": "2025-12-13T04:05:38.557824",
        "meta_mean_motion": 1.00271847,
        "meta_eccentricity": 0.00028838,
        "meta_inclination": 0.0022,
        "meta_ra_of_asc_node": 55.4008,
        "meta_arg_of_pericenter": 213.196,
        "meta_mean_anomaly": 111.9115,
        "meta_ephemeris_type": 0,
        "meta_classification_type": "U",
        "meta_norad_cat_id": 32951,
        "meta_element_set_no": 999,
        "meta_rev_at_epoch": 4398,
        "meta_bstar": 0,
        "meta_mean_motion_dot": 3.9e-07,
        "meta_mean_motion_ddot": 0,
        "tle_line1": "1 32951U 08024A   25347.17058516  .00000039  00000+0  00000+0 0  9998",
        "tle_line2": "2 32951   0.0022  55.4008 0002883 213.1960 111.9115  1.00271847 43984"
      },
      "geometry": {
        "type": "Point",
        "coordinates": [
          19.068181925907314,
          0.003341372267740008
        ]
      }
    },
    {
      "type": "Feature",
      "properties": {
        "norad_id": 33153,
        "name": "INTELSAT 25 (IS-25)",
        "group": "intelsat",
        "lat": 1.0592326003126538,
        "lon": 110.51089439152975,
        "alt_km": 35804.65241681608,
        "timestamp": "2025-12-14T03:55:52.460807+00:00",
        "meta_object_name": "INTELSAT 25 (IS-25)",
        "meta_object_id": "2008-034A",
        "meta_epoch": "2025-12-13T04:44:21.834816",
        "meta_mean_motion": 1.00271778,
        "meta_eccentricity": 0.00049754,
        "meta_inclination": 2.2291,
        "meta_ra_of_asc_node": 82.6458,
        "meta_arg_of_pericenter": 180.1039,
        "meta_mean_anomaly": 218.9829,
        "meta_ephemeris_type": 0,
        "meta_classification_type": "U",
        "meta_norad_cat_id": 33153,
        "meta_element_set_no": 999,
        "meta_rev_at_epoch": 6383,
        "meta_bstar": 0,
        "meta_mean_motion_dot": -2.11e-06,
        "meta_mean_motion_ddot": 0,
        "tle_line1": "1 33153U 08034A   25347.19747494 -.00000211  00000+0  00000+0 0  9999",
        "tle_line2": "2 33153   2.2291  82.6458 0004975 180.1039 218.9829  1.00271778 63835"
      },
      "geometry": {
        "type": "Point",
        "coordinates": [
          110.51089439152975,
          1.0592326003126538
        ]
      }
    }
  ]
}